{
    "links": {
        "self": "http://www.neowsapp.com/rest/v1/neo/3840737?api_key=iIulBulltgU6a56xZRHN4H3l9WmuAYTsLGpBGhQ2"
    },
    "id": "3840737",
    "neo_reference_id": "3840737",
    "name": "(2019 FO2)",
    "designation": "2019 FO2",
    "nasa_jpl_url": "http://ssd.jpl.nasa.gov/sbdb.cgi?sstr=3840737",
    "absolute_magnitude_h": 26.0,
    "estimated_diameter": {
        "kilometers": {
            "estimated_diameter_min": 0.0167708462,
            "estimated_diameter_max": 0.0375007522
        },
        "meters": {
            "estimated_diameter_min": 16.7708462163,
            "estimated_diameter_max": 37.5007521798
        },
        "miles": {
            "estimated_diameter_min": 0.0104209175,
            "estimated_diameter_max": 0.0233018799
        },
        "feet": {
            "estimated_diameter_min": 55.0224631002,
            "estimated_diameter_max": 123.0339677816
        }
    },
    "is_potentially_hazardous_asteroid": false,
    "close_approach_data": [
        {
            "close_approach_date": "2019-03-23",
            "close_approach_date_full": "2019-Mar-23 04:12",
            "epoch_date_close_approach": 1553314320000,
            "relative_velocity": {
                "kilometers_per_second": "8.9013158528",
                "kilometers_per_hour": "32044.73707021",
                "miles_per_hour": "19911.3534312091"
            },
            "miss_distance": {
                "astronomical": "0.0278071051",
                "lunar": "10.8169638839",
                "kilometers": "4159883.693826137",
                "miles": "2584831.8670972106"
            },
            "orbiting_body": "Earth"
        }
    ],
    "orbital_data": {
        "orbit_id": "3",
        "orbit_determination_date": "2019-04-05 07:30:26",
        "first_observation_date": "2019-03-31",
        "last_observation_date": "2019-04-05",
        "data_arc_in_days": 5,
        "observations_used": 43,
        "orbit_uncertainty": "8",
        "minimum_orbit_intersection": ".00216682",
        "jupiter_tisserand_invariant": "3.971",
        "epoch_osculation": "2458577.5",
        "eccentricity": ".466543080705304",
        "semi_major_axis": "1.769672389811665",
        "inclination": "2.061299339506523",
        "ascending_node_longitude": "352.527922172219",
        "orbital_period": "859.8797857535562",
        "perihelion_distance": ".9440439812298133",
        "perihelion_argument": "150.6160145843183",
        "aphelion_distance": "2.595300798393517",
        "perihelion_time": "2458535.492550395338",
        "mean_anomaly": "17.58697216544699",
        "mean_motion": ".4186631735789832",
        "equinox": "J2000",
        "orbit_class": {
            "orbit_class_type": "APO",
            "orbit_class_description": "Near-Earth asteroid orbits which cross the Earth’s orbit similar to that of 1862 Apollo",
            "orbit_class_range": "a (semi-major axis) > 1.0 AU; q (perihelion) < 1.017 AU"
        }
    },
    "is_sentry_object": false
}